FORMOSAT 7-3            
1 44343U 19036E   26132.49253262  .00003023  00000+0  16275-3 0  9995
2 44343  23.9990  64.1548 0000627 191.8909 168.1580 15.09524500377841
FORMOSAT 7-1            
1 44349U 19036L   26132.70594288  .00001839  00000+0  13251-3 0  9995
2 44349  23.9976 271.5700 0001022 108.0181 252.0431 14.96356634379337
FORMOSAT 7-4            
1 44350U 19036M   26132.86167126  .00001911  00000+0  13879-3 0  9998
2 44350  23.9992 332.6234 0001222 127.7335 232.3277 14.96350900378775
FORMOSAT 7-2            
1 44351U 19036N   26132.41723124  .00001821  00000+0  13103-3 0  9996
2 44351  23.9988  29.9318 0000777 124.6191 235.4383 14.96346017378226
FORMOSAT 7-6            
1 44353U 19036Q   26132.55054047  .00001683  00000+0  11907-3 0  9990
2 44353  23.9964 209.8533 0001381  55.8795 304.1837 14.96358593376472
FORMOSAT 7-5            
1 44358U 19036V   26132.72793933  .00001622  00000+0  11386-3 0  9992
2 44358  23.9971 147.4059 0000695 114.3657 245.6916 14.96357713377033
METEOR-M2 2             
1 44387U 19038A   26132.84047714 -.00000181  00000+0 -58510-4 0  9990
2 44387  98.9138 119.6072 0002271 102.4789 257.6643 14.24355391356267
GLOBAL-4                
1 44499U 19054E   26131.95832607  .00032320  00000+0  37907-3 0  9990
2 44499  45.0057  84.8750 0003631  96.0203 264.1107 15.60966967374693
ZY-1 02D                
1 44528U 19059A   26132.86846713 -.00000107  00000+0 -22554-4 0  9995
2 44528  98.3207 195.6000 0000808 161.0472 199.0745 14.35447925349276
TAURUS-1 (JINNIUZUO 1)  
1 44530U 19059C   26132.82512090  .00005309  00000+0  85938-3 0  9993
2 44530  98.6391 295.4769 0009463  68.8995 291.3221 14.71707839353449
ZHUHAI-1 03B            
1 44536U 19060C   26132.87466350  .00019630  00000+0  32578-3 0  9997
2 44536  97.5486 288.8006 0009864  90.2401 269.9981 15.52106258370849
ZHUHAI-1 03C            
1 44537U 19060D   26132.84546051  .00286351  33966-4  75927-3 0  9995
2 44537  97.5478 301.3117 0004735 315.4712  44.6182 15.94632961371612
ZHUHAI-1 03D            
1 44538U 19060E   26132.88045757  .00020371  00000+0  39429-3 0  9990
2 44538  97.5345 281.2389 0008294  77.2875 282.9302 15.47733931370617
ZHUHAI-1 03E            
1 44539U 19060F   26132.84124206  .00011236  00000+0  28455-3 0  9991
2 44539  97.5564 281.6069 0006971 142.3348 217.8386 15.39888684370323
GAOFEN-7                
1 44703U 19072A   26132.88081171  .00002443  00000+0  11174-3 0  9994
2 44703  97.2450 195.6706 0017328 154.7199 205.4889 15.21319613362276
JILIN-1 GAOFEN 2A       
1 44777U 19075A   26132.82491081  .00009206  00000+0  24574-3 0  9999
2 44777  97.4964 215.8170 0006230 196.3119 163.7926 15.38333029359441
NINGXIA-1 1             
1 44779U 19076A   26132.83761154 -.00000052  00000+0  50597-4 0  9990
2 44779  45.0071 337.8222 0011273 347.6712  12.3844 14.02035278332890
NINGXIA-1 5             
1 44783U 19076E   26132.85211280  .00000130  00000+0  16903-3 0  9995
2 44783  45.0073 337.1130 0011303 337.9298  22.1048 14.02084102332810
KL-ALPHA A              
1 44785U 19077A   26132.84946068  .00000084  00000+0  10256-3 0  9999
2 44785  88.9254 226.4254 0010254 201.6028 158.4695 13.56039090320944
CARTOSAT-3              
1 44804U 19081A   26132.85432978  .00001162  00000+0  58403-4 0  9992
2 44804  97.4325 195.2840 0011086 275.5712  84.4258 15.19193740358104
JILIN-1 GAOFEN 2B       
1 44836U 19086A   26132.80723213  .00004248  00000+0  19814-3 0  9992
2 44836  97.4893 205.0294 0015736  85.3873 274.9159 15.20296474355117
TIANQIN 1 (CAS-6)       
1 44879U 19093A   26132.82459253  .00001074  00000+0  10278-3 0  9998
2 44879  97.7792 216.9262 0011449 165.5925 194.5624 14.95253081346760
ETRSS-1                 
1 44880U 19093B   26132.84126190  .00001672  00000+0  15543-3 0  9997
2 44880  97.7805 217.3709 0011826 165.3841 194.7724 14.95656833346778
TIANYAN 01              
1 44881U 19093C   26132.83945314  .00000918  00000+0  10984-3 0  9990
2 44881  97.7537 205.9326 0012924 197.1661 162.9119 14.86461746346167
TIANYAN 02              
1 44882U 19093D   26132.81470057  .00005000  00000+0  35822-3 0  9991
2 44882  97.7907 227.2823 0014784 141.0360 219.1934 15.04763871347298
CBERS 4A                
1 44883U 19093E   26132.83627411  .00000506  00000+0  70699-4 0  9990
2 44883  97.7509 201.2069 0001009 352.9240   7.1958 14.81647721345846
WEILAI 1R               
1 44884U 19093F   26132.84383490  .00001419  00000+0  11776-3 0  9992
2 44884  97.7827 222.6929 0015274 145.9004 214.3204 15.00324599347125
FLORIPASAT-1            
1 44885U 19093G   26132.82322412  .00002010  00000+0  15198-3 0  9998
2 44885  97.7877 226.8097 0011826 184.2961 175.8165 15.03470631347332
