OBJECT_NAME,OBJECT_ID,EPOCH,MEAN_MOTION,ECCENTRICITY,INCLINATION,RA_OF_ASC_NODE,ARG_OF_PERICENTER,MEAN_ANOMALY,EPHEMERIS_TYPE,CLASSIFICATION_TYPE,NORAD_CAT_ID,ELEMENT_SET_NO,REV_AT_EPOCH,BSTAR,MEAN_MOTION_DOT,MEAN_MOTION_DDOT
FORMOSAT 7-3,2019-036E,2026-05-12T11:49:14.818368,15.09524500,.0000627,23.9990,64.1548,191.8909,168.1580,0,U,44343,999,37784,.16275E-3,.3023E-4,0
FORMOSAT 7-1,2019-036L,2026-05-12T16:56:33.464832,14.96356634,.0001022,23.9976,271.5700,108.0181,252.0431,0,U,44349,999,37933,.13251E-3,.1839E-4,0
FORMOSAT 7-4,2019-036M,2026-05-12T20:40:48.396864,14.96350900,.0001222,23.9992,332.6234,127.7335,232.3277,0,U,44350,999,37877,.13879E-3,.1911E-4,0
FORMOSAT 7-2,2019-036N,2026-05-12T10:00:48.779136,14.96346017,.0000777,23.9988,29.9318,124.6191,235.4383,0,U,44351,999,37822,.13103E-3,.1821E-4,0
FORMOSAT 7-6,2019-036Q,2026-05-12T13:12:46.696608,14.96358593,.0001381,23.9964,209.8533,55.8795,304.1837,0,U,44353,999,37647,.11907E-3,.1683E-4,0
FORMOSAT 7-5,2019-036V,2026-05-12T17:28:13.958112,14.96357713,.0000695,23.9971,147.4059,114.3657,245.6916,0,U,44358,999,37703,.11386E-3,.1622E-4,0
METEOR-M2 2,2019-038A,2026-05-12T20:10:17.224896,14.24355391,.0002271,98.9138,119.6072,102.4789,257.6643,0,U,44387,999,35626,-.5851E-4,-.181E-5,0
GLOBAL-4,2019-054E,2026-05-11T22:59:59.372448,15.60966967,.00036311,45.0057,84.8750,96.0203,264.1107,0,U,44499,999,37469,.37907425E-3,.3232E-3,0
ZY-1 02D,2019-059A,2026-05-12T20:50:35.560032,14.35447925,.0000808,98.3207,195.6000,161.0472,199.0745,0,U,44528,999,34927,-.22554E-4,-.107E-5,0
TAURUS-1 (JINNIUZUO 1),2019-059C,2026-05-12T19:48:10.445760,14.71707839,.0009463,98.6391,295.4769,68.8995,291.3221,0,U,44530,999,35344,.85938E-3,.5309E-4,0
ZHUHAI-1 03B,2019-060C,2026-05-12T20:59:30.926400,15.52106258,.0009864,97.5486,288.8006,90.2401,269.9981,0,U,44536,999,37084,.32578E-3,.1963E-3,0
ZHUHAI-1 03C,2019-060D,2026-05-12T20:17:27.788064,15.94632961,.0004735,97.5478,301.3117,315.4712,44.6182,0,U,44537,999,37161,.75927E-3,.286351E-2,.33966E-4
ZHUHAI-1 03D,2019-060E,2026-05-12T21:07:51.534048,15.47733931,.0008294,97.5345,281.2389,77.2875,282.9302,0,U,44538,999,37061,.39429E-3,.20371E-3,0
ZHUHAI-1 03E,2019-060F,2026-05-12T20:11:23.313984,15.39888684,.0006971,97.5564,281.6069,142.3348,217.8386,0,U,44539,999,37032,.28455E-3,.11236E-3,0
GAOFEN-7,2019-072A,2026-05-12T21:08:22.131744,15.21319613,.0017328,97.2450,195.6706,154.7199,205.4889,0,U,44703,999,36227,.11174E-3,.2443E-4,0
JILIN-1 GAOFEN 2A,2019-075A,2026-05-12T19:47:52.293984,15.38333029,.000623,97.4964,215.8170,196.3119,163.7926,0,U,44777,999,35944,.24574E-3,.9206E-4,0
NINGXIA-1 1,2019-076A,2026-05-12T20:06:09.637056,14.02035278,.0011273,45.0071,337.8222,347.6712,12.3844,0,U,44779,999,33289,.50597E-4,-.52E-6,0
NINGXIA-1 5,2019-076E,2026-05-12T20:27:02.545920,14.02084102,.0011303,45.0073,337.1130,337.9298,22.1048,0,U,44783,999,33281,.16903E-3,.13E-5,0
KL-ALPHA A,2019-077A,2026-05-12T20:23:13.402752,13.56039090,.0010254,88.9254,226.4254,201.6028,158.4695,0,U,44785,999,32094,.10256E-3,.84E-6,0
CARTOSAT-3,2019-081A,2026-05-12T20:30:14.092992,15.19193740,.0011086,97.4325,195.2840,275.5712,84.4258,0,U,44804,999,35810,.58403E-4,.1162E-4,0
JILIN-1 GAOFEN 2B,2019-086A,2026-05-12T19:22:24.856032,15.20296474,.0015736,97.4893,205.0294,85.3873,274.9159,0,U,44836,999,35511,.19814E-3,.4248E-4,0
TIANQIN 1 (CAS-6),2019-093A,2026-05-12T19:47:24.794592,14.95253081,.0011449,97.7792,216.9262,165.5925,194.5624,0,U,44879,999,34676,.10278E-3,.1074E-4,0
ETRSS-1,2019-093B,2026-05-12T20:11:25.028160,14.95656833,.0011826,97.7805,217.3709,165.3841,194.7724,0,U,44880,999,34677,.15543E-3,.1672E-4,0
TIANYAN 01,2019-093C,2026-05-12T20:08:48.751296,14.86461746,.0012924,97.7537,205.9326,197.1661,162.9119,0,U,44881,999,34616,.10984E-3,.918E-5,0
TIANYAN 02,2019-093D,2026-05-12T19:33:10.129248,15.04763871,.0014784,97.7907,227.2823,141.0360,219.1934,0,U,44882,999,34729,.35822E-3,.5E-4,0
CBERS 4A,2019-093E,2026-05-12T20:04:14.083104,14.81647721,.0001009,97.7509,201.2069,352.9240,7.1958,0,U,44883,999,34584,.70699E-4,.506E-5,0
WEILAI 1R,2019-093F,2026-05-12T20:15:07.335360,15.00324599,.0015274,97.7827,222.6929,145.9004,214.3204,0,U,44884,999,34712,.11776E-3,.1419E-4,0
FLORIPASAT-1,2019-093G,2026-05-12T19:45:26.563968,15.03470631,.0011826,97.7877,226.8097,184.2961,175.8165,0,U,44885,999,34733,.15198E-3,.201E-4,0
